KUIPER-00089            
1 64834U 25151U   25359.86470714  .00004990  00000+0  68281-3 0  9999
2 64834  51.9018 252.0423 0002410  89.9242 270.1996 14.79954050 24587
KUIPER-00090            
1 64835U 25151V   25361.37836444  .00003944  00000+0  58917-3 0  9998
2 64835  51.8979 237.4032 0004634 106.9615 253.1855 14.76655612 24911
KUIPER-00091            
1 64836U 25151W   25360.94794691 -.00004644  00000+0 -58000-3 0  9991
2 64836  51.9007 244.7581 0008573  57.6366 302.5425 14.79930177 24777
KUIPER-00092            
1 64837U 25151X   25361.41250275 -.00004346  00000+0 -54123-3 0  9991
2 64837  51.9020 250.1976 0003713  42.4220 317.7029 14.79932780 25955
KUIPER-00093            
1 64838U 25151Y   25361.50002315  .00015848  00000+0  21021-2 0  9999
2 64838  51.8987 252.2999 0003258  61.9396  58.7214 14.79947764  4211
KUIPER-00094            
1 64839U 25151Z   25360.86888157  .00010551  00000+0  75371-3 0  9998
2 64839  51.8882 237.3447 0004492  41.6325 318.4989 15.04976611 24877
KUIPER-00081            
1 65132U 25171A   25359.07528450  .00005296  00000+0  55227-3 0  9993
2 65132  51.8943 118.4131 0002730 290.6995  69.3680 14.91148571 21983
KUIPER-00088            
1 65133U 25171B   25361.08532174  .00003983  00000+0  59315-3 0  9999
2 65133  51.8990 127.0933 0007630 236.3616 123.6617 14.76767739 22030
